STRIX-BETA              
1 51847U 22020A   26068.81006817  .00254279  00000+0  15321-2 0  9996
2 51847  97.5704 163.5020 0005628 250.1372 109.9287 15.76952977222995
STARLINK-36344          
1 67710U 26025T   26068.80805904  .00411803  00000+0  26124-2 0  9995
2 67710  97.2844 180.4676 0002373  35.9158 324.2266 15.75352511  5976
