[{"OBJECT_NAME":"STRIX-BETA","OBJECT_ID":"2022-020A","EPOCH":"2026-03-09T19:26:29.889888","MEAN_MOTION":15.76952977,"ECCENTRICITY":0.00056276,"INCLINATION":97.5704,"RA_OF_ASC_NODE":163.502,"ARG_OF_PERICENTER":250.1372,"MEAN_ANOMALY":109.9287,"EPHEMERIS_TYPE":0,"CLASSIFICATION_TYPE":"U","NORAD_CAT_ID":51847,"ELEMENT_SET_NO":999,"REV_AT_EPOCH":22299,"BSTAR":0.0015320612,"MEAN_MOTION_DOT":0.0025428,"MEAN_MOTION_DDOT":0},{"OBJECT_NAME":"STARLINK-36344","OBJECT_ID":"2026-025T","EPOCH":"2026-03-09T19:23:36.301920","MEAN_MOTION":15.75352511,"ECCENTRICITY":0.00023733,"INCLINATION":97.2844,"RA_OF_ASC_NODE":180.4676,"ARG_OF_PERICENTER":35.9158,"MEAN_ANOMALY":324.2266,"EPHEMERIS_TYPE":0,"CLASSIFICATION_TYPE":"U","NORAD_CAT_ID":67710,"ELEMENT_SET_NO":999,"REV_AT_EPOCH":597,"BSTAR":0.0026124454,"MEAN_MOTION_DOT":0.00411803,"MEAN_MOTION_DDOT":0}]
